{
    "links": {
        "self": "http://www.neowsapp.com/rest/v1/neo/3251444?api_key=iIulBulltgU6a56xZRHN4H3l9WmuAYTsLGpBGhQ2"
    },
    "id": "3251444",
    "neo_reference_id": "3251444",
    "name": "(2004 RJ9)",
    "designation": "2004 RJ9",
    "nasa_jpl_url": "http://ssd.jpl.nasa.gov/sbdb.cgi?sstr=3251444",
    "absolute_magnitude_h": 19.9,
    "estimated_diameter": {
        "kilometers": {
            "estimated_diameter_min": 0.2783267681,
            "estimated_diameter_max": 0.6223575734
        },
        "meters": {
            "estimated_diameter_min": 278.3267680719,
            "estimated_diameter_max": 622.3575733667
        },
        "miles": {
            "estimated_diameter_min": 0.1729441822,
            "estimated_diameter_max": 0.3867149477
        },
        "feet": {
            "estimated_diameter_min": 913.1455937611,
            "estimated_diameter_max": 2041.8556210042
        }
    },
    "is_potentially_hazardous_asteroid": false,
    "close_approach_data": [
        {
            "close_approach_date": "2002-04-15",
            "close_approach_date_full": "2002-Apr-15 08:25",
            "epoch_date_close_approach": 1018859100000,
            "relative_velocity": {
                "kilometers_per_second": "6.2551928153",
                "kilometers_per_hour": "22518.6941351928",
                "miles_per_hour": "13992.2408086147"
            },
            "miss_distance": {
                "astronomical": "0.8851757053",
                "lunar": "344.3333493617",
                "kilometers": "132420400.088627711",
                "miles": "82282221.1377799718"
            },
            "orbiting_body": "Juptr"
        },
        {
            "close_approach_date": "2004-07-24",
            "close_approach_date_full": "2004-Jul-24 00:15",
            "epoch_date_close_approach": 1090628100000,
            "relative_velocity": {
                "kilometers_per_second": "15.6153771922",
                "kilometers_per_hour": "56215.3578918358",
                "miles_per_hour": "34930.0372411798"
            },
            "miss_distance": {
                "astronomical": "0.0617061988",
                "lunar": "24.0037113332",
                "kilometers": "9231115.906276556",
                "miles": "5735949.4446502328"
            },
            "orbiting_body": "Earth"
        }
    ],
    "orbital_data": {
        "orbit_id": "12",
        "orbit_determination_date": "2017-04-06 09:12:23",
        "first_observation_date": "2004-09-06",
        "last_observation_date": "2004-10-10",
        "data_arc_in_days": 34,
        "observations_used": 51,
        "orbit_uncertainty": "8",
        "minimum_orbit_intersection": ".0525367",
        "jupiter_tisserand_invariant": "2.919",
        "epoch_osculation": "2453259.5",
        "eccentricity": ".6240857996028226",
        "semi_major_axis": "2.792709935902514",
        "inclination": "22.71465986649391",
        "ascending_node_longitude": "301.0178893270001",
        "orbital_period": "1704.657651184521",
        "perihelion_distance": "1.049819322496046",
        "perihelion_argument": "341.4833455828661",
        "aphelion_distance": "4.535600549308981",
        "perihelion_time": "2453195.750579667123",
        "mean_anomaly": "13.46299141290248",
        "mean_motion": ".2111860993026052",
        "equinox": "J2000",
        "orbit_class": {
            "orbit_class_type": "AMO",
            "orbit_class_description": "Near-Earth asteroid orbits similar to that of 1221 Amor",
            "orbit_class_range": "1.017 AU < q (perihelion) < 1.3 AU"
        }
    },
    "is_sentry_object": false
}